OBJECT_NAME,OBJECT_ID,EPOCH,MEAN_MOTION,ECCENTRICITY,INCLINATION,RA_OF_ASC_NODE,ARG_OF_PERICENTER,MEAN_ANOMALY,EPHEMERIS_TYPE,CLASSIFICATION_TYPE,NORAD_CAT_ID,ELEMENT_SET_NO,REV_AT_EPOCH,BSTAR,MEAN_MOTION_DOT,MEAN_MOTION_DDOT
LEMUR-2-STARLIGHT,2025-276DY,2026-07-10T03:07:45.492096,14.99316422,.00147717,97.5230,260.9845,62.0755,298.1962,0,U,66783,999,3363,.38742581E-3,.4687E-4,0
LEMUR-2-TARTIFLETTE,2025-276DZ,2026-07-10T23:54:44.712576,14.99308795,.0013856,97.5235,261.8286,67.5753,292.6937,0,U,66784,999,3376,.28423E-3,.3421E-4,0
LEMUR-2-VUKASIN,2025-276EA,2026-07-10T10:28:43.032288,15.00520064,.00037909,97.5242,261.6384,68.8123,291.3506,0,U,66785,999,3363,.28035656E-3,.3477E-4,0
LEMUR-2-HOTSPUR-TOM,2025-276EB,2026-07-10T14:09:37.956960,14.99212666,.0013855,97.5222,261.4122,59.8577,300.4018,0,U,66786,999,3363,.29732E-3,.3572E-4,0
LEMUR-2-MYRA,2025-276EC,2026-07-11T00:03:01.874592,15.00558625,.0018558,97.5220,262.1056,66.9551,293.3628,0,U,66787,999,3378,.29407E-3,.3666E-4,0
LEMUR-2 FIKRETDENGIZ,2026-004A,2026-07-09T17:20:41.873568,14.88491309,.0010439,97.8024,188.9369,71.1066,289.1282,0,U,67363,999,2663,.26760836E-3,.2433E-4,0
TWILIGHT-1 OBJECT B,2026-004B,2026-07-10T05:28:19.732224,14.87783017,.0010013,97.8071,189.4384,60.0405,300.1805,0,U,67364,999,2671,.13800507E-3,.1206E-4,0
LEMUR-2-MARIO-SOUSA,2026-004C,2026-07-10T07:23:53.676096,14.88703210,.0010049,97.7996,189.5087,70.7060,289.5243,0,U,67365,999,2673,.26917649E-3,.2461E-4,0
LEMUR-2-SONNENBLUME,2026-004E,2026-07-10T18:44:22.053120,14.88439699,.0009593,97.7993,189.9489,70.6400,289.5853,0,U,67367,999,2680,.15704E-3,.1403E-4,0
LEMUR-2-WOBLER,2026-004F,2026-07-10T10:26:01.670784,14.88678189,.00097584,97.8048,189.7542,63.1252,297.0961,0,U,67368,999,2675,.23898594E-3,.2177E-4,0
LEMUR-2-GRAM-E-SUE,2026-004H,2026-07-09T10:02:16.225440,14.88573884,.00088105,97.7979,188.6239,76.6994,283.5205,0,U,67370,999,2660,.20247652E-3,.1831E-4,0
LEMUR-2-KATIE,2026-004AA,2026-07-10T18:59:59.736768,14.90225924,.0003794,97.8039,190.5127,43.5820,316.5697,0,U,67387,999,2682,.30597E-3,.2912E-4,0
LEMUR-2-HCS-BAZUS,2026-004AB,2026-07-10T23:47:45.442752,14.90246795,.000329,97.8030,190.6891,43.2286,316.9189,0,U,67388,999,2685,.15592E-3,.1457E-4,0
